******** Week 124 almanac for PRN-17 ********
ID:                         17
Health:                     000
Eccentricity:               0.1348781586E-001
Time of Applicability(s):  589824.0000
Orbital Inclination(rad):   0.9816901800
Rate of Right Ascen(r/s):  -0.7806039439E-008
SQRT(A)  (m 1/2):           5153.607910
Right Ascen at Week(rad):   0.2188810072E+000
Argument of Perigee(rad):  -1.559847614
Mean Anom(rad):             0.1284658351E+001
Af0(s):                     0.4959106445E-003
Af1(s/s):                   0.7275957614E-011
week:                        124

******** Week 124 almanac for PRN-18 ********
ID:                         18
Health:                     000
Eccentricity:               0.1870155334E-002
Time of Applicability(s):  589824.0000
Orbital Inclination(rad):   0.9688790435
Rate of Right Ascen(r/s):  -0.7794610391E-008
SQRT(A)  (m 1/2):           5153.604980
Right Ascen at Week(rad):   0.1226080584E+001
Argument of Perigee(rad):   2.919777009
Mean Anom(rad):            -0.6499734259E+000
Af0(s):                     0.3280639648E-003
Af1(s/s):                  -0.3637978807E-011
week:                        124

******** Week 124 almanac for PRN-19 ********
ID:                         19
Health:                     000
Eccentricity:               0.9176731110E-002
Time of Applicability(s):  589824.0000
Orbital Inclination(rad):   0.9802940178
Rate of Right Ascen(r/s):  -0.7783181344E-008
SQRT(A)  (m 1/2):           5153.604004
Right Ascen at Week(rad):   0.2639064892E+000
Argument of Perigee(rad):   1.929320519
Mean Anom(rad):            -0.2618670737E+001
Af0(s):                     0.4577636719E-004
Af1(s/s):                   0.3637978807E-011
week:                        124

******** Week 124 almanac for PRN-20 ********
ID:                         20
Health:                     000
Eccentricity:               0.5517005920E-002
Time of Applicability(s):  589824.0000
Orbital Inclination(rad):   0.9392959844
Rate of Right Ascen(r/s):  -0.8194627053E-008
SQRT(A)  (m 1/2):           5153.583984
Right Ascen at Week(rad):   0.2103848658E+001
Argument of Perigee(rad):   2.974216474
Mean Anom(rad):             0.1922531830E+000
Af0(s):                     0.5197525024E-003
Af1(s/s):                   0.0000000000E+000
week:                        124

******** Week 124 almanac for PRN-21 ********
ID:                         21
Health:                     000
Eccentricity:               0.2405929565E-001
Time of Applicability(s):  589824.0000
Orbital Inclination(rad):   0.9579254620
Rate of Right Ascen(r/s):  -0.7863184676E-008
SQRT(A)  (m 1/2):           5153.601074
Right Ascen at Week(rad):   0.1129455149E+001
Argument of Perigee(rad):  -1.092484938
Mean Anom(rad):             0.1378108341E+001
Af0(s):                     0.1401901245E-003
Af1(s/s):                   0.3637978807E-011
week:                        124

******** Week 124 almanac for PRN-22 ********
ID:                         22
Health:                     000
Eccentricity:               0.6779193878E-002
Time of Applicability(s):  589824.0000
Orbital Inclination(rad):   0.9360123067
Rate of Right Ascen(r/s):  -0.8217485148E-008
SQRT(A)  (m 1/2):           5153.689453
Right Ascen at Week(rad):   0.2150060953E+001
Argument of Perigee(rad):  -0.900919350
Mean Anom(rad):             0.1519037957E+000
Af0(s):                    -0.5273818970E-003
Af1(s/s):                   0.1091393642E-010
week:                        124

******** Week 124 almanac for PRN-23 ********
ID:                         23
Health:                     000
Eccentricity:               0.1597404480E-002
Time of Applicability(s):  589824.0000
Orbital Inclination(rad):   0.9652178628
Rate of Right Ascen(r/s):  -0.7908900866E-008
SQRT(A)  (m 1/2):           5153.614258
Right Ascen at Week(rad):   0.2226009481E+001
Argument of Perigee(rad):   2.655415494
Mean Anom(rad):            -0.1389276141E+001
Af0(s):                     0.6484985352E-004
Af1(s/s):                  -0.3637978807E-011
week:                        124

******** Week 124 almanac for PRN-24 ********
ID:                         24
Health:                     000
Eccentricity:               0.1143693924E-001
Time of Applicability(s):  589824.0000
Orbital Inclination(rad):   0.9347180105
Rate of Right Ascen(r/s):  -0.8011762293E-008
SQRT(A)  (m 1/2):           5153.660645
Right Ascen at Week(rad):  -0.2009030595E+001
Argument of Perigee(rad):   0.752276762
Mean Anom(rad):            -0.6204772524E+000
Af0(s):                     0.2212524414E-003
Af1(s/s):                   0.1091393642E-010
week:                        124

******** Week 124 almanac for PRN-25 ********
ID:                         25
Health:                     000
Eccentricity:               0.9844303131E-002
Time of Applicability(s):  589824.0000
Orbital Inclination(rad):   0.9596092456
Rate of Right Ascen(r/s):  -0.8068907531E-008
SQRT(A)  (m 1/2):           5153.528320
Right Ascen at Week(rad):  -0.8920195653E+000
Argument of Perigee(rad):   0.969998295
Mean Anom(rad):            -0.2511155387E+001
Af0(s):                     0.1993179321E-003
Af1(s/s):                   0.7275957614E-011
week:                        124

******** Week 124 almanac for PRN-26 ********
ID:                         26
Health:                     000
Eccentricity:               0.6028652191E-002
Time of Applicability(s):  589824.0000
Orbital Inclination(rad):   0.9404824226
Rate of Right Ascen(r/s):  -0.8240343243E-008
SQRT(A)  (m 1/2):           5153.557129
Right Ascen at Week(rad):  -0.9358323936E+000
Argument of Perigee(rad):   0.295128391
Mean Anom(rad):             0.3100496125E+001
Af0(s):                     0.1277923584E-003
Af1(s/s):                   0.3637978807E-011
week:                        124

******** Week 124 almanac for PRN-27 ********
ID:                         27
Health:                     000
Eccentricity:               0.9459495544E-002
Time of Applicability(s):  589824.0000
Orbital Inclination(rad):   0.9754044540
Rate of Right Ascen(r/s):  -0.7897471819E-008
SQRT(A)  (m 1/2):           5153.644043
Right Ascen at Week(rad):   0.1575858164E+000
Argument of Perigee(rad):   0.634630622
Mean Anom(rad):             0.1201064263E+001
Af0(s):                    -0.1850128174E-003
Af1(s/s):                  -0.3637978807E-011
week:                        124

******** Week 124 almanac for PRN-29 ********
ID:                         29
Health:                     000
Eccentricity:               0.1965522766E-002
Time of Applicability(s):  589824.0000
Orbital Inclination(rad):   0.9836016638
Rate of Right Ascen(r/s):  -0.7783181344E-008
SQRT(A)  (m 1/2):           5153.543457
Right Ascen at Week(rad):   0.2315243645E+000
Argument of Perigee(rad):   2.315838362
Mean Anom(rad):             0.1273591294E+001
Af0(s):                    -0.4034042358E-003
Af1(s/s):                  -0.7275957614E-011
week:                        124

******** Week 124 almanac for PRN-30 ********
ID:                         30
Health:                     000
Eccentricity:               0.5368709564E-002
Time of Applicability(s):  589824.0000
Orbital Inclination(rad):   0.9364197704
Rate of Right Ascen(r/s):  -0.8034620388E-008
SQRT(A)  (m 1/2):           5153.602051
Right Ascen at Week(rad):  -0.1913409962E+001
Argument of Perigee(rad):  -2.733072897
Mean Anom(rad):            -0.1725004839E+001
Af0(s):                    -0.4673004150E-003
Af1(s/s):                  -0.3637978807E-011
week:                        124

******** Week 124 almanac for PRN-31 ********
ID:                         31
Health:                     000
Eccentricity:               0.1011657715E-001
Time of Applicability(s):  589824.0000
Orbital Inclination(rad):   0.9555106407
Rate of Right Ascen(r/s):  -0.7817468486E-008
SQRT(A)  (m 1/2):           5153.549316
Right Ascen at Week(rad):  -0.1911722059E+001
Argument of Perigee(rad):   0.285343646
Mean Anom(rad):            -0.2070232908E+001
Af0(s):                    -0.1363754272E-003
Af1(s/s):                  -0.3637978807E-011
week:                        124

******** Week 124 almanac for PRN-32 ********
ID:                         32
Health:                     000
Eccentricity:               0.5080699921E-002
Time of Applicability(s):  589824.0000
Orbital Inclination(rad):   0.9579254620
Rate of Right Ascen(r/s):  -0.7886042771E-008
SQRT(A)  (m 1/2):           5153.656250
Right Ascen at Week(rad):  -0.2990789159E+001
Argument of Perigee(rad):  -2.369335567
Mean Anom(rad):             0.1964885204E+001
Af0(s):                     0.3814697266E-005
Af1(s/s):                  -0.3637978807E-011
week:                        124